KUIPER-00027            
1 63740U 25088S   25296.42589457  .00003239  00000+0  45802-3 0  9999
2 63740  51.9023 342.4085 0005216  68.8489 291.3031 14.79527498 27290
KUIPER-00028            
1 63741U 25088T   25296.50742141  .00002912  00000+0  41660-3 0  9995
2 63741  51.9010 339.9958 0004733  91.2324 268.9181 14.79332835 27743
KUIPER-00029            
1 63742U 25088U   25296.48546317 -.00003006  00000+0 -36502-3 0  9996
2 63742  51.9028 338.0594 0009018  38.0492 322.1106 14.79912519 27298
KUIPER-00030            
1 63743U 25088V   25296.55856690  .00003043  00000+0  42763-3 0  9998
2 63743  51.9020 356.9300 0014229 340.8713  19.1713 14.79945544 27320
KUIPER-00031            
1 63744U 25088W   25296.43805551 -.00001639  00000+0 -18589-3 0  9996
2 63744  51.9002 343.5351 0004616  20.2201 339.8943 14.79928789 27216
KUIPER-00032            
1 63745U 25088X   25296.36211255  .00018655  00000+0  61304-3 0  9998
2 63745  51.8721 325.1907 0005625   3.9900 356.1129 15.31576960 28467
KUIPER-00033            
1 63746U 25088Y   25296.47316962  .00000745  00000+0  12681-3 0  9997
2 63746  51.9016  13.3643 0004173  87.5210 272.6230 14.79944116 27285
KUIPER-00034            
1 63747U 25088Z   25296.49248896 -.00000289  00000+0 -88022-5 0  9999
2 63747  51.8992 335.5709 0002428  15.1742 344.9293 14.79970010 27495
